SPACEMOBILE-003         
1 61045U 24163A   26173.47502698  .00014560  00000+0  66495-3 0  9990
2 61045  52.9765 285.1267 0006461 128.4012 231.7563 15.20811799 98577
SPACEMOBILE-005         
1 61046U 24163B   26173.78713684  .00008969  00000+0  41443-3 0  9996
2 61046  52.9792 283.6201 0009871 129.6567 230.5300 15.20887283 98617
SPACEMOBILE-001         
1 61047U 24163C   26173.78578974  .00003077  00000+0  15212-3 0  9998
2 61047  52.9752 283.3515 0008748 126.2406 233.9398 15.20857738 98612
SPACEMOBILE-002         
1 61048U 24163D   26173.57267477  .00007471  00000+0  34829-3 0  9996
2 61048  52.9711 284.3771 0008139 132.6290 227.5391 15.20842706 98586
SPACEMOBILE-004         
1 61049U 24163E   26173.81756904  .00005970  00000+0  28143-3 0  9996
2 61049  52.9695 283.0373 0009183 157.7598 202.3796 15.20825741 98626
SPACEMOBILE-001 DEB     
1 62369U 24163F   26173.52422026  .00006284  00000+0  19318-3 0  9998
2 62369  52.9928 254.0470 0007269 172.9036 187.2068 15.35013250 87324
SPACEMOBILE-002 DEB     
1 62370U 24163G   26173.62236601  .00013301  00000+0  30547-3 0  9998
2 62370  52.9413 239.1673 0005329 200.5466 159.5324 15.43032746 99201
SPACEMOBILE-003 DEB     
1 62371U 24163H   26173.49358829  .00013950  00000+0  34442-3 0  9999
2 62371  52.9696 246.2480 0006973 161.1238 199.0024 15.40790949 92702
SPACEMOBILE-004 DEB     
1 62372U 24163J   26173.50170377  .00009972  00000+0  25424-3 0  9991
2 62372  52.9840 245.7119 0004022 175.8735 184.2302 15.40181303 95777
SPACEMOBILE-005 DEB     
1 62373U 24163K   26173.47044651  .00007031  00000+0  21994-3 0  9995
2 62373  52.9740 259.1270 0007362 155.1274 205.0082 15.34257739 98931
SPACEMOBILE-006         
1 67232U 25309A   26173.63732387  .00002766  00000+0  14742-3 0  9998
2 67232  52.9956 306.6689 0011692 144.5735 215.6038 15.18554210 27426
SPACEMOBILE-008         
1 69589U 26139A   26173.69134931 -.00000045  00000+0  14466-4 0  9997
2 69589  52.9943 237.5865 0003729 339.6548  20.4294 15.12498996   821
SPACEMOBILE-009         
1 69590U 26139B   26173.69074947 -.00000099  00000+0  11400-4 0  9993
2 69590  52.9923 237.5808 0003858 350.8825   9.2095 15.12667537   816
SPACEMOBILE-010         
1 69591U 26139C   26173.69037367 -.00000062  00000+0  13453-4 0  9999
2 69591  52.9945 237.5815 0003682 357.3124   2.7846 15.12774101   816
